SATELLITE1               
1 27391U 02012A   17297.61010955  .00029937  00000-0  11199-3 0  9994
2 27391  88.9810 301.7218 0005808 147.1040   8.2469 15.87753656196876
SATELLITE2                 
1 27392U 02012B   17297.61010955  .00029937  00000-0  11199-3 0  9994
2 27392  88.9810 301.7218 0005808 147.1040   5.9947 15.87753656196876
